STARLINK-36884          
1 68026U 26040M   26068.91668981 -.01162450  46436-3 -16232-2 0  9997
2 68026  97.2773  17.1210 0000848  97.8588 276.3593 16.05963331  2460
STARLINK-36251          
1 68093U 26042AA  26068.75002315 -.01268866  53365-3 -19380-2 0  9992
2 68093  53.1604 194.9533 0000743  57.3068  18.1740 16.03783774  2058
