[{"OBJECT_NAME":"STARLINK-36884","OBJECT_ID":"2026-040M","EPOCH":"2026-03-09T22:00:01.999584","MEAN_MOTION":16.05963331,"ECCENTRICITY":8.486e-5,"INCLINATION":97.2773,"RA_OF_ASC_NODE":17.121,"ARG_OF_PERICENTER":97.8588,"MEAN_ANOMALY":276.3593,"EPHEMERIS_TYPE":0,"CLASSIFICATION_TYPE":"U","NORAD_CAT_ID":68026,"ELEMENT_SET_NO":999,"REV_AT_EPOCH":246,"BSTAR":-0.001623248,"MEAN_MOTION_DOT":-0.0116245,"MEAN_MOTION_DDOT":0.00046435824},{"OBJECT_NAME":"OBJECT AA","OBJECT_ID":"2026-042AA","EPOCH":"2026-03-09T18:00:02.000160","MEAN_MOTION":16.03783774,"ECCENTRICITY":7.436e-5,"INCLINATION":53.1604,"RA_OF_ASC_NODE":194.9533,"ARG_OF_PERICENTER":57.3068,"MEAN_ANOMALY":18.174,"EPHEMERIS_TYPE":0,"CLASSIFICATION_TYPE":"U","NORAD_CAT_ID":68093,"ELEMENT_SET_NO":999,"REV_AT_EPOCH":205,"BSTAR":-0.0019379955,"MEAN_MOTION_DOT":-0.01268866,"MEAN_MOTION_DDOT":0.00053365254}]
